NORAD_CAT_ID,OBJECT_NAME,OBJECT_TYPE,EPOCH,MEAN_MOTION,ECCENTRICITY,INCLINATION,RA_OF_ASC_NODE,ARG_OF_PERICENTER,MEAN_ANOMALY,BSTAR,MEAN_MOTION_DOT,MEAN_MOTION_DDOT,TLE_LINE0,TLE_LINE1,TLE_LINE2,SEMIMAJOR_AXIS,PERIOD,APOGEE,PERIGEE,DECAYED
50832.0,STARLINK-3328,PAYLOAD,2022-09-09 17:40:53,15.08852418,0.0001597,53.217,151.592,79.7985,280.3187,6.444899999999999e-05,7.38e-06,0.0,0 STARLINK-3328,1 50832U 22001AF  22252.73672554  .00000738  00000-0  64449-4 0  9994,2 50832  53.2170 151.5920 0001597  79.7985 280.3187 15.08852418 38741,6917.842,95.437,540.812,538.6030000000002,0.0
50832.0,STARLINK-3328,PAYLOAD,2022-09-09 20:51:39,15.08853547,0.0001593,53.217,150.9973,79.4895,280.6276,7.1314e-05,8.48e-06,0.0,0 STARLINK-3328,1 50832U 22001AF  22252.86920350  .00000848  00000-0  71314-4 0  9999,2 50832  53.2170 150.9973 0001593  79.4895 280.6276 15.08853547 37515,6917.839,95.437,540.806,538.602,0.0
50832.0,STARLINK-3328,PAYLOAD,2022-09-10 03:13:12,15.08838922,0.0001613,53.2171,149.8083,77.7368,282.3804,-5.4697e-05,-1.158e-05,0.0,0 STARLINK-3328,1 50832U 22001AF  22253.13417575 -.00001158  00000-0 -54697-4 0  9992,2 50832  53.2171 149.8083 0001613  77.7368 282.3804 15.08838922 38803,6917.884,95.438,540.865,538.633,0.0
50832.0,STARLINK-3328,PAYLOAD,2022-09-10 20:42:26,15.08841663,0.0001558,53.217,146.5377,71.4254,288.6907,-3.779e-05,-8.89e-06,0.0,0 STARLINK-3328,1 50832U 22001AF  22253.86281240 -.00000889  00000-0 -37790-4 0  9995,2 50832  53.2170 146.5377 0001558  71.4254 288.6907 15.08841663 37667,6917.875,95.437,540.818,538.663,0.0
50832.0,STARLINK-3328,PAYLOAD,2022-09-11 03:03:59,15.08843324,0.0001569,53.2171,145.3485,70.3802,289.736,-1.7749000000000002e-05,-5.71e-06,0.0,0 STARLINK-3328,1 50832U 22001AF  22254.12777061 -.00000571  00000-0 -17749-4 0  9996,2 50832  53.2171 145.3485 0001569  70.3802 289.7360 15.08843324 37700,6917.87,95.437,540.821,538.65,0.0
50832.0,STARLINK-3328,PAYLOAD,2022-09-11 20:33:14,15.08840577,0.0001563,53.2176,142.0773,75.6891,284.4274,-3.2895e-05,-8.12e-06,0.0,0 STARLINK-3328,1 50832U 22001AF  22254.85641259 -.00000812  00000-0 -32895-4 0  9992,2 50832  53.2176 142.0773 0001563  75.6891 284.4274 15.08840577 37814,6917.879,95.438,540.825,538.6619999999998,0.0
50832.0,STARLINK-3328,PAYLOAD,2022-09-12 02:54:46,15.0884468,0.0001553,53.2172,140.8881,70.6901,289.4259,1.0079e-05,-1.28e-06,0.0,0 STARLINK-3328,1 50832U 22001AF  22255.12136915 -.00000128  00000-0  10079-4 0  9990,2 50832  53.2172 140.8881 0001553  70.6901 289.4259 15.08844680 37853,6917.866,95.437,540.805,538.6569999999998,0.0
50832.0,STARLINK-3328,PAYLOAD,2022-09-12 17:13:15,15.08834935,0.0001506999999999,53.2177,138.211,72.1318,287.9839,7.5453e-05,9.13e-06,0.0,0 STARLINK-3328,1 50832U 22001AF  22255.71753488  .00000913  00000-0  75453-4 0  9993,2 50832  53.2177 138.2110 0001507  72.1318 287.9839 15.08834935 39190,6917.896,95.438,540.803,538.7180000000002,0.0
50832.0,STARLINK-3328,PAYLOAD,2022-09-13 02:45:34,15.08829642,0.0001506999999999,53.217,136.4274,66.5631,293.5519,-8.3921e-06,-4.21e-06,0.0,0 STARLINK-3328,1 50832U 22001AF  22256.11498301 -.00000421  00000-0 -83921-5 0  9994,2 50832  53.2170 136.4274 0001507  66.5631 293.5519 15.08829642 39253,6917.9119999999975,95.438,540.82,538.735,0.0
50832.0,STARLINK-3328,PAYLOAD,2022-09-13 09:07:06,15.08836882,0.0001440999999999,53.2176,135.2384,67.0132,293.1013,4.1515e-05,3.73e-06,0.0,0 STARLINK-3328,1 50832U 22001AF  22256.37993736  .00000373  00000-0  41515-4 0  9990,2 50832  53.2176 135.2384 0001441  67.0132 293.1013 15.08836882 38042,6917.89,95.438,540.752,538.758,0.0
50832.0,STARLINK-3328,PAYLOAD,2022-09-13 15:28:39,15.08836204,0.0001416999999999,53.2181,134.0488,70.4742,289.6403,8.0943e-05,1e-05,0.0,0 STARLINK-3328,1 50832U 22001AF  22256.64489777  .00001000  00000-0  80943-4 0  9991,2 50832  53.2181 134.0488 0001417  70.4742 289.6403 15.08836204 39332,6917.892,95.438,540.737,538.7769999999998,0.0
50832.0,STARLINK-3328,PAYLOAD,2022-09-13 17:04:02,15.0883874,0.0001385999999999,53.2181,133.7514,68.9884,291.1256,4.793e-05,4.75e-06,0.0,0 STARLINK-3328,1 50832U 22001AF  22256.71113750  .00000475  00000-0  47930-4 0  9998,2 50832  53.2181 133.7514 0001386  68.9884 291.1256 15.08838740 38095,6917.884,95.438,540.7080000000002,538.79,0.0
50832.0,STARLINK-3328,PAYLOAD,2022-09-14 01:00:57,15.08838979,0.0001368,53.2177,132.2647,67.513,292.6007,4.7747e-05,4.72e-06,0.0,0 STARLINK-3328,1 50832U 22001AF  22257.04233781  .00000472  00000-0  47747-4 0  9995,2 50832  53.2177 132.2647 0001368  67.5130 292.6007 15.08838979 38140,6917.884,95.438,540.695,538.802,0.0
50832.0,STARLINK-3328,PAYLOAD,2022-09-14 15:19:25,15.08859599,0.0001426999999999,53.218,129.5886,61.2317,298.8818,-0.00021202,-3.663e-05,0.0,0 STARLINK-3328,1 50832U 22001AF  22257.63848929 -.00003663  00000-0 -21202-3 0  9990,2 50832  53.2180 129.5886 0001427  61.2317 298.8818 15.08859599 39489,6917.82,95.436,540.673,538.698,0.0
50832.0,STARLINK-3328,PAYLOAD,2022-09-15 21:31:44,15.08850976,0.0001504,53.217,123.9384,68.4762,291.6391,0.00013015,1.785e-05,0.0,0 STARLINK-3328,1 50832U 22001AF  22258.89704858  .00001785  00000-0  13015-3 0  9995,2 50832  53.2170 123.9384 0001504  68.4762 291.6391 15.08850976 38428,6917.847,95.437,540.752,538.6709999999998,0.0
50832.0,STARLINK-3328,PAYLOAD,2022-09-15 23:07:08,15.08840061,0.0001595999999999,53.2171,123.6414,67.753,292.3631,6.8435e-05,8.01e-06,0.0,0 STARLINK-3328,1 50832U 22001AF  22258.96329748  .00000801  00000-0  68435-4 0  9999,2 50832  53.2171 123.6414 0001596  67.7530 292.3631 15.08840061 39684,6917.88,95.438,540.849,538.641,0.0
50832.0,STARLINK-3328,PAYLOAD,2022-09-16 11:50:13,15.08844879,0.0001595999999999,53.217,121.2626,68.1293,291.9869,7.7045e-05,9.39e-06,0.0,0 STARLINK-3328,1 50832U 22001AF  22259.49321422  .00000939  00000-0  77045-4 0  9998,2 50832  53.2170 121.2626 0001596  68.1293 291.9869 15.08844879 38513,6917.865,95.437,540.835,538.626,0.0
50832.0,STARLINK-3328,PAYLOAD,2022-09-16 19:47:10,15.08833425,0.0001649,53.217,119.7753,73.2795,286.8378,-3.4825e-06,-3.43e-06,0.0,0 STARLINK-3328,1 50832U 22001AF  22259.82442411 -.00000343  00000-0 -34825-5 0  9998,2 50832  53.2170 119.7753 0001649  73.2795 286.8378 15.08833425 39816,6917.9,95.438,540.906,538.625,0.0
50832.0,STARLINK-3328,PAYLOAD,2022-09-17 11:41:01,15.08844054,0.0001568,53.2169,116.8018,69.3471,290.7689,5.7749e-06,-1.96e-06,0.0,0 STARLINK-3328,1 50832U 22001AF  22260.48681869 -.00000196  00000-0  57749-5 0  9999,2 50832  53.2169 116.8018 0001568  69.3471 290.7689 15.08844054 38664,6917.868,95.437,540.818,538.648,0.0
50832.0,STARLINK-3328,PAYLOAD,2022-09-17 21:13:20,15.0883342,0.0001557,53.2168,115.0173,70.1269,289.9890000000001,-8.6981e-05,-1.672e-05,0.0,0 STARLINK-3328,1 50832U 22001AF  22260.88426721 -.00001672  00000-0 -86981-4 0  9997,2 50832  53.2168 115.0173 0001557  70.1269 289.9890 15.08833420 39973,6917.901,95.438,540.8430000000002,538.688,0.0
50832.0,STARLINK-3328,PAYLOAD,2022-09-18 13:07:12,15.08833606,0.0001603,53.2168,112.0437,70.824,289.2926,5.9117e-05,6.53e-06,0.0,0 STARLINK-3328,1 50832U 22001AF  22261.54666760  .00000653  00000-0  59117-4 0  9997,2 50832  53.2168 112.0437 0001603  70.8240 289.2926 15.08833606 38823,6917.9,95.438,540.874,538.656,0.0
50832.0,STARLINK-3328,PAYLOAD,2022-09-18 19:28:44,15.08839006,0.0001523,53.2168,110.8543,69.6143,290.5013,6.053e-05,6.75e-06,0.0,0 STARLINK-3328,1 50832U 22001AF  22261.81162515  .00000675  00000-0  60530-4 0  9991,2 50832  53.2168 110.8543 0001523  69.6143 290.5013 15.08839006 40113,6917.8830000000025,95.438,540.802,538.695,0.0
50832.0,STARLINK-3328,PAYLOAD,2022-09-18 21:04:07,15.08838277,0.0001563,53.2161,110.557,68.2751,291.8407,0.00010417,1.3699999999999998e-05,0.0,0 STARLINK-3328,1 50832U 22001AF  22261.87786551  .00001370  00000-0  10417-3 0  9990,2 50832  53.2161 110.5570 0001563  68.2751 291.8407 15.08838277 38877,6917.886,95.438,540.832,538.669,0.0
50832.0,STARLINK-3328,PAYLOAD,2022-09-19 12:57:58,15.08847773,0.0001564,53.2161,107.5836,67.8478,292.268,0.00029342,4.386e-05,0.0,0 STARLINK-3328,1 50832U 22001AF  22262.54026323  .00004386  00000-0  29342-3 0  9996,2 50832  53.2161 107.5836 0001564  67.8478 292.2680 15.08847773 38970,6917.857,95.437,540.804,538.64,0.0
50832.0,STARLINK-3328,PAYLOAD,2022-09-19 19:19:31,15.08858005,0.0001528,53.2162,106.3942,68.1332,291.9822,0.00055329,8.533e-05,0.0,0 STARLINK-3328,1 50832U 22001AF  22262.80522049  .00008533  00000-0  55329-3 0  9993,2 50832  53.2162 106.3942 0001528  68.1332 291.9822 15.08858005 40268,6917.825,95.436,540.747,538.633,0.0
50832.0,STARLINK-3328,PAYLOAD,2022-09-20 01:41:03,15.08842888,0.0001720999999999,53.216,105.2048,67.5755,292.5419,1.6776e-05,-2.1e-07,0.0,0 STARLINK-3328,1 50832U 22001AF  22263.07018374 -.00000021  00000-0  16776-4 0  9993,2 50832  53.2160 105.2048 0001721  67.5755 292.5419 15.08842888 40304,6917.871999999999,95.437,540.927,538.5459999999998,0.0
50832.0,STARLINK-3328,PAYLOAD,2022-09-20 12:48:45,15.08846676,0.0001629,53.216,103.1233,71.0715,289.0453,0.00013957,1.934e-05,0.0,0 STARLINK-3328,1 50832U 22001AF  22263.53386172  .00001934  00000-0  13957-3 0  9998,2 50832  53.2160 103.1233 0001629  71.0715 289.0453 15.08846676 39126,6917.86,95.437,540.852,538.5980000000002,0.0
50832.0,STARLINK-3328,PAYLOAD,2022-09-20 20:45:41,15.08849114,0.0001696999999999,53.2159,101.6365,70.7559,289.3616,0.00019415,2.804e-05,0.0,0 STARLINK-3328,1 50832U 22001AF  22263.86505988  .00002804  00000-0  19415-3 0  9994,2 50832  53.2159 101.6365 0001697  70.7559 289.3616 15.08849114 39179,6917.853,95.437,540.891,538.544,0.0
50832.0,STARLINK-3328,PAYLOAD,2022-09-21 04:42:37,15.08835786,0.000162,53.2159,100.1497,70.6415,289.4752,-6.3238e-05,-1.294e-05,0.0,0 STARLINK-3328,1 50832U 22001AF  22264.19626552 -.00001294  00000-0 -63238-4 0  9999,2 50832  53.2159 100.1497 0001620  70.6415 289.4752 15.08835786 40472,6917.893,95.438,540.879,538.638,0.0
